[{"OBJECT_NAME":"SKYSAT-C6","OBJECT_ID":"2017-068F","EPOCH":"2026-03-09T21:33:49.392576","MEAN_MOTION":15.32504544,"ECCENTRICITY":0.00036369,"INCLINATION":97.44,"RA_OF_ASC_NODE":205.7173,"ARG_OF_PERICENTER":127.5085,"MEAN_ANOMALY":232.6488,"EPHEMERIS_TYPE":0,"CLASSIFICATION_TYPE":"U","NORAD_CAT_ID":42992,"ELEMENT_SET_NO":999,"REV_AT_EPOCH":46710,"BSTAR":0.00039699196,"MEAN_MOTION_DOT":0.0001239,"MEAN_MOTION_DDOT":0},{"OBJECT_NAME":"STARLINK-34063","OBJECT_ID":"2025-113R","EPOCH":"2026-03-09T08:32:24.599328","MEAN_MOTION":15.30195889,"ECCENTRICITY":0.00011935,"INCLINATION":53.1578,"RA_OF_ASC_NODE":92.7048,"ARG_OF_PERICENTER":90.9557,"MEAN_ANOMALY":269.158,"EPHEMERIS_TYPE":0,"CLASSIFICATION_TYPE":"U","NORAD_CAT_ID":64185,"ELEMENT_SET_NO":999,"REV_AT_EPOCH":4501,"BSTAR":0.00049126006,"MEAN_MOTION_DOT":0.00014217,"MEAN_MOTION_DDOT":0}]
